OBJECT_NAME,OBJECT_ID,EPOCH,MEAN_MOTION,ECCENTRICITY,INCLINATION,RA_OF_ASC_NODE,ARG_OF_PERICENTER,MEAN_ANOMALY,NORAD_CAT_ID,ELEMENT_SET_NO,REV_AT_EPOCH,BSTAR,MEAN_MOTION_DOT,MEAN_MOTION_DDOT
STARLINK-32781,2025-019V,2026-03-20T13:30:37.107072,15.27604256,0.0003654,43.0109,27.5933,262.1642,97.8795,62848.0,999.0,6391.0,0.00066513,0.00018101,0.0
STARLINK-32809,2025-019W,2026-03-20T22:20:24.547488,15.276546,4.394e-05,43.0014,25.1871,335.8731,24.21,62849.0,999.0,6397.0,0.00097725477,0.00026789,0.0
NVS-02 (IRNSS-1K),2025-020A,2026-03-20T20:27:34.278048,2.17759096,0.73500148,20.8278,291.6511,90.6456,345.5583,62850.0,999.0,905.0,0.00081221914,1.078e-05,0.0
SPAINSAT NG I,2025-021A,2026-03-20T20:23:09.819744,1.0027697,6.939e-05,0.0208,185.1342,99.2416,228.7847,62852.0,999.0,310.0,0.0,0.0,0.0
STARLINK-32868,2025-022A,2026-03-21T05:47:53.598048,15.30249489,0.00014722,53.1601,75.6097,66.0945,294.021,62854.0,999.0,6448.0,0.002170849,0.00064595,0.0
STARLINK-32867,2025-022B,2026-03-21T05:52:26.412960,15.30220839,0.0001984,53.1616,75.6177,88.5736,271.5492,62855.0,999.0,6367.0,0.00098870015,0.00029057,0.0
STARLINK-32860,2025-022C,2026-03-21T05:35:53.390112,15.30206706,0.00015337,53.1611,76.2635,86.7586,273.359,62856.0,999.0,6366.0,0.00034857412,9.981e-05,0.0
STARLINK-32873,2025-022D,2026-03-21T05:34:22.212192,15.30209972,0.00014212,53.1606,76.2623,89.6562,270.4602,62857.0,999.0,6366.0,0.00043233043,0.00012471,0.0
STARLINK-32866,2025-022E,2026-03-21T04:24:26.734464,15.30245304,0.0001333,53.1609,75.9558,96.5836,263.5316,62858.0,999.0,6366.0,0.0014937009,0.00044206,0.0
STARLINK-32869,2025-022F,2026-03-21T06:15:13.930560,15.30217819,0.00013014,53.1588,75.7119,85.6168,274.4982,62859.0,999.0,6367.0,0.00079925675,0.000234,0.0
STARLINK-32831,2025-022G,2026-03-21T06:27:22.467456,15.301924,0.00014863,53.1585,75.7815,92.6615,267.4556,62860.0,999.0,6366.0,0.00079379863,0.00023219,0.0
STARLINK-32859,2025-022H,2026-03-21T04:07:54.331104,15.30253528,0.00019248,53.1593,76.5938,84.2295,275.8925,62861.0,999.0,6365.0,0.0010665193,0.00031414,0.0
STARLINK-32864,2025-022J,2026-03-21T06:24:20.864160,15.30218977,0.00011064,53.1588,75.7541,84.8173,275.2954,62862.0,999.0,6367.0,0.00067300183,0.00019638,0.0
STARLINK-32808,2025-022K,2026-03-21T05:22:12.668736,15.30213938,0.00012427,53.1588,76.2054,93.4131,266.7012,62863.0,999.0,6366.0,0.00084896938,0.0002488,0.0
STARLINK-32862,2025-022L,2026-03-21T05:29:48.425280,15.30193621,0.00011077,53.1597,76.2414,88.9506,271.1622,62864.0,999.0,6366.0,0.00053424549,0.00015494,0.0
STARLINK-32841,2025-022M,2026-03-21T06:34:59.526048,15.30211735,0.00012618,53.1578,75.8145,89.613,270.5015,62865.0,999.0,6366.0,0.0008458827,0.00024786,0.0
STARLINK-32695,2025-022N,2026-03-21T05:53:57.558912,15.30225883,0.00016625,53.1608,75.6327,88.4378,271.6813,62866.0,999.0,6367.0,0.00088632915,0.00026004,0.0
STARLINK-32846,2025-022P,2026-03-21T06:21:18.680256,15.30215107,0.00013018,53.1587,75.7376,88.6035,271.5115,62867.0,999.0,6367.0,0.00069042947,0.00020154,0.0
STARLINK-32822,2025-022Q,2026-03-21T06:39:31.804416,15.30214582,0.00010609,53.1581,75.8296,85.1612,274.951,62868.0,999.0,6367.0,0.00014740491,4.011e-05,0.0
STARLINK-32813,2025-022R,2026-03-21T07:00:49.362336,15.301955,0.00014283,53.1594,75.9241,88.8128,271.3036,62869.0,999.0,6367.0,0.00036271488,0.00010397,0.0
STARLINK-32861,2025-022S,2026-03-21T05:57:00.050400,15.30214168,0.00015232,53.1616,75.6482,91.3568,268.7607,62870.0,999.0,6367.0,0.00086935184,0.00025488,0.0
STARLINK-32814,2025-022T,2026-03-21T05:08:32.241984,15.30210455,0.00014496,53.158,76.152,89.4715,270.6452,62871.0,999.0,6366.0,0.00047963028,0.00013877,0.0
STARLINK-32849,2025-022U,2026-03-21T04:06:23.827968,15.30220144,0.00015211,53.1617,76.5928,79.5027,280.6145,62872.0,999.0,6365.0,0.0014178401,0.00041897,0.0
STARLINK-32833,2025-022V,2026-03-21T06:22:49.892736,15.30218464,0.00012989,53.1587,75.7618,90.4217,269.6933,62873.0,999.0,6367.0,0.00081077549,0.00023744,0.0
STARLINK-32793,2025-022W,2026-03-21T06:50:10.929408,15.30224564,0.00012891,53.1591,75.8846,79.4675,280.6471,62874.0,999.0,6367.0,0.00063610132,0.00018542,0.0
STARLINK-32834,2025-022X,2026-03-21T06:25:52.486176,15.30262239,0.00018942,53.158,75.7713,102.6864,257.4348,62875.0,999.0,6367.0,0.0013219927,0.00039077,0.0
QZS-6 (MICHIBIKI-6),2025-023A,2026-03-21T03:11:38.838624,1.00272371,0.00021968,0.0336,69.339,289.5036,318.2288,62876.0,999.0,407.0,0.0,-2.31e-06,0.0
STARLINK-11371 [DTC],2025-024A,2026-03-20T12:01:21.427680,15.70900544,0.00018638,43.0026,116.5869,255.8215,104.2446,62879.0,999.0,6516.0,0.001336053,0.0017509,0.0
STARLINK-11352 [DTC],2025-024B,2026-03-20T11:07:50.554848,15.70868086,0.00018876,43.0003,116.2861,275.7855,84.2797,62880.0,999.0,6516.0,0.0010477967,0.00136389,0.0
STARLINK-11382 [DTC],2025-024C,2026-03-20T11:38:25.985472,15.70962056,5.96e-05,43.0013,116.456,344.9154,15.1696,62881.0,999.0,6516.0,0.0014323536,0.00188535,0.0
STARLINK-11432 [DTC],2025-024D,2026-03-20T11:53:43.052352,15.70882535,0.00010381,42.9993,116.542,277.4774,82.5976,62882.0,999.0,6516.0,0.0014020009,0.00183808,0.0
STARLINK-11419 [DTC],2025-024E,2026-03-20T19:08:38.021856,15.71040001,0.00035811,43.0013,114.4965,62.6793,297.444,62883.0,999.0,6521.0,0.0016253233,0.00215434,0.0
STARLINK-11437 [DTC],2025-024F,2026-03-20T11:46:04.580256,15.70876291,2.944e-05,42.9977,116.4987,243.5267,116.5571,62884.0,999.0,6516.0,0.0013777175,0.001805,0.0
STARLINK-11442 [DTC],2025-024G,2026-03-20T13:55:40.874016,15.70885962,0.0001685,43.0006,115.4308,236.8919,123.1787,62885.0,999.0,6518.0,0.0015033,0.00197477,0.0
STARLINK-11365 [DTC],2025-024H,2026-03-20T11:00:11.813184,15.70881297,0.00014661,42.9995,116.2407,260.6381,99.4321,62886.0,999.0,6516.0,0.0011913583,0.00155582,0.0
STARLINK-11436 [DTC],2025-024J,2026-03-20T19:00:55.691136,15.70931505,5.365e-05,42.9994,114.4517,252.0784,108.0025,62887.0,999.0,6521.0,0.001930337,0.0025601,0.0
STARLINK-11438 [DTC],2025-024K,2026-03-20T11:01:30.489888,15.70881928,0.0001477,43.0006,116.2491,264.774,95.2959,62888.0,999.0,6516.0,0.0011751712,0.00153426,0.0
STARLINK-11391 [DTC],2025-024L,2026-03-20T11:15:29.068416,15.70871872,0.00015224,42.9987,116.3197,273.0641,87.0052,62889.0,999.0,6516.0,0.0011847886,0.00154643,0.0
STARLINK-11431 [DTC],2025-024M,2026-03-20T22:57:33.824736,15.70960341,0.00020271,42.9995,113.9825,277.9881,82.0757,62890.0,999.0,6523.0,0.0016762213,0.00221586,0.0
STARLINK-11435 [DTC],2025-024N,2026-03-21T00:21:28.481472,15.70958969,0.00010463,42.9984,113.5547,258.8526,101.2224,62891.0,999.0,6524.0,0.0014495204,0.00190828,0.0
STARLINK-32878,2025-024P,2026-03-21T04:37:11.014176,15.27594715,0.00012285,42.9981,260.5309,289.5509,70.5209,62892.0,999.0,6402.0,0.0017346608,0.00047803,0.0
STARLINK-32892,2025-024Q,2026-03-20T22:26:06.418464,15.27587665,0.00014598,42.9994,262.0338,273.8803,86.1882,62893.0,999.0,6398.0,0.00079342721,0.00021641,0.0
STARLINK-32909,2025-024R,2026-03-21T04:51:58.793184,15.27605281,0.00011511,42.9986,260.6066,274.0043,86.0677,62894.0,999.0,6402.0,0.0008672724,0.00023698,0.0
STARLINK-32901,2025-024S,2026-03-20T20:20:29.535648,15.27600917,0.00011612,42.9993,262.2384,261.3209,98.7511,62895.0,999.0,6397.0,0.00074314174,0.00020257,0.0
STARLINK-32890,2025-024T,2026-03-20T21:12:05.169888,15.27599548,0.00016149,43.0038,261.6467,265.0187,95.0481,62896.0,999.0,6398.0,0.00066067622,0.00017973,0.0
STARLINK-32893,2025-024U,2026-03-20T23:02:52.651104,15.27575819,0.00026459,43.0044,261.361,251.3055,108.751,62897.0,999.0,6399.0,0.0010963431,0.00030027,0.0
STARLINK-32902,2025-024V,2026-03-21T05:13:58.049472,15.2761003,0.00015374,43.0032,259.8555,271.5399,88.5276,62898.0,999.0,6403.0,0.00063479237,0.00017263,0.0
STARLINK-32661,2025-024W,2026-03-20T22:00:11.736864,15.27612494,0.00021055,43.0016,261.8969,259.067,100.9945,62899.0,999.0,6398.0,0.0011344072,0.00031118,0.0
LEGION 5,2025-025A,2026-03-21T04:57:56.696544,15.15211233,0.00087854,45.0025,52.9507,357.3964,2.6867,62900.0,999.0,6114.0,0.00026656604,4.836e-05,0.0
LEGION 6,2025-025B,2026-03-20T22:37:40.034208,15.15264033,0.00077128,45.0014,323.5274,336.5846,23.4681,62901.0,999.0,6224.0,0.00021430778,3.841e-05,0.0
COSMOS 2581,2025-026A,2026-03-20T19:11:24.491328,14.94775161,0.0009755,81.9984,164.665,357.0134,3.1026,62902.0,999.0,6101.0,0.00013829,1.527e-05,0.0
COSMOS 2582,2025-026B,2026-03-20T20:47:53.566080,14.94773426,0.0009761,81.9983,164.5964,356.8329,3.2827,62903.0,999.0,6101.0,0.0001044,1.159e-05,0.0
COSMOS 2583,2025-026C,2026-03-20T20:47:47.492160,14.94786774,0.0009991,81.998,164.5961,354.4076,5.703,62904.0,999.0,6100.0,0.00021032,2.311e-05,0.0
STARLINK-11552 [DTC],2025-027A,2026-03-20T21:32:59.195904,15.70934002,0.00029292,43.0033,280.217,260.6614,99.3923,62907.0,999.0,6495.0,0.0013361596,0.00175371,0.0
STARLINK-11561 [DTC],2025-027B,2026-03-21T06:04:07.347648,15.71204665,0.00024528,42.9988,277.7016,315.953,44.1142,62908.0,999.0,6497.0,0.0022232786,0.00299932,0.0
STARLINK-11567 [DTC],2025-027C,2026-03-20T21:55:55.696512,15.7089152,0.00015439,43.0002,280.344,280.2004,79.8689,62909.0,999.0,6491.0,0.0017255616,0.00227626,0.0
STARLINK-11569 [DTC],2025-027D,2026-03-21T00:00:00.999648,15.70758518,0.00016298,43.0006,279.3798,279.1737,29.1991,62910.0,999.0,599.0,0.0014827731,0.00193645,0.0
STARLINK-11537 [DTC],2025-027E,2026-03-21T00:00:00.999648,15.70765821,0.00014943,43.0005,279.5289,271.1846,337.0594,62911.0,999.0,594.0,0.0012685509,0.0016508,0.0
STARLINK-11565 [DTC],2025-027F,2026-03-21T05:48:49.699296,15.71034898,0.00020866,42.9982,277.6171,298.2458,61.8199,62912.0,999.0,6497.0,0.0025283967,0.00340398,0.0
STARLINK-11564 [DTC],2025-027G,2026-03-20T21:40:38.271072,15.7094332,0.00019904,42.9977,280.2566,268.2099,91.8541,62913.0,999.0,6491.0,0.0015405143,0.00203006,0.0
STARLINK-11566 [DTC],2025-027H,2026-03-20T21:48:16.911648,15.70887024,0.0002113,43.0005,280.299,279.5098,80.5531,62914.0,999.0,6495.0,0.0017020368,0.0022439,0.0
